0 FENGYUN 1C DEB
1 32414U 99025DAA 13282.83355618  .00001595  00000-0  10380-2 0  3082
2 32414 099.1653 287.6483 0055407 215.0012 268.3251 14.03235331320040
0 FENGYUN 1C DEB
1 32414U 99025DAA 13287.24143640  .00001667  00000-0  10833-2 0  3108
2 32414 099.1651 292.0877 0055524 202.7380 215.5635 14.03251282320667
0 FENGYUN 1C DEB
1 32414U 99025DAA 13288.82335769  .00001767  00000-0  11459-2 0  3115
2 32414 099.1652 293.6809 0055536 198.3215 287.0214 14.03259222320883
0 FENGYUN 1C DEB
1 32414U 99025DAA 13290.23627436  .00001619  00000-0  10525-2 0  3128
2 32414 099.1654 295.1037 0055563 194.3842 224.7362 14.03265300321086
0 FENGYUN 1C DEB
1 32414U 99025DAA 13291.81762853  .00001556  00000-0  10123-2 0  3131
2 32414 099.1655 296.6963 0055597 189.9695 293.4037 14.03270803321305
0 FENGYUN 1C DEB
1 32414U 99025DAA 13294.22930907  .00001562  00000-0  10160-2 0  3145
2 32414 099.1655 299.1255 0055673 183.2321 236.7677 14.03279278321647
0 FENGYUN 1C DEB
1 32414U 99025DAA 13295.81058019  .00001625  00000-0  10556-2 0  3156
2 32414 099.1654 300.7182 0055727 178.8441 305.0682 14.03284416321867
